STARLINK-1008           
1 44714U 19074B   24285.84815858  .00014253  00000+0  97312-3 0  9998
2 44714  53.0544 333.3442 0001400  90.8865 269.2285 15.06426788271478
STARLINK-1009           
1 44715U 19074C   24286.10249327 -.00002002  00000+0 -11546-3 0  9997
2 44715  53.0556 332.2026 0003022 105.4991 254.6332 15.06403065271501
STARLINK-1010           
1 44716U 19074D   24286.12092254  .00007404  00000+0  51547-3 0  9999
2 44716  53.0548 332.1182 0001750  87.6611 272.4578 15.06396678271490
STARLINK-1011           
1 44717U 19074E   24286.18542440 -.00004542  00000+0 -28635-3 0  9997
2 44717  53.0550 351.8285 0001701  88.7887 271.3297 15.06382484271248
STARLINK-1012           
1 44718U 19074F   24286.15778272 -.00004554  00000+0 -28741-3 0  9990
2 44718  53.0557 331.9538 0001363  92.6731 267.4414 15.06350112271512
STARLINK-1013           
1 44719U 19074G   24286.16515569  .00034850  00000+0  23462-2 0  9994
2 44719  53.0552 331.9194 0004088  86.0902 274.0554 15.06407734271512
STARLINK-1014           
1 44720U 19074H   24285.81731804  .00038428  00000+0  19902-2 0  9998
2 44720  53.0550 326.8598 0003565  28.4524 331.6663 15.15857644271567
STARLINK-1015           
1 44721U 19074J   24285.87400997  .00002989  00000+0  21943-3 0  9993
2 44721  53.0555 333.5720 0001638  99.6293 260.4881 15.06411124271466
STARLINK-1017           
1 44723U 19074L   24286.12460824  .00025976  00000+0  17553-2 0  9991
2 44723  53.0548 332.1049 0003021  85.6654 274.4680 15.06419980271519
STARLINK-1019           
1 44724U 19074M   24286.15409066  .00005607  00000+0  39501-3 0  9993
2 44724  53.0565 331.9717 0001247  88.4275 271.6856 15.06400362271514
STARLINK-1020           
1 44725U 19074N   24285.49615250  .00004657  00000+0  33129-3 0  9998
2 44725  53.0554 354.9250 0000559  90.0396 270.0657 15.06403032270965
STARLINK-1021           
1 44726U 19074P   24286.15040843  .00001678  00000+0  13148-3 0  9992
2 44726  53.0557 331.9871 0001151  88.2134 271.8986 15.06401589271512
STARLINK-1027           
1 44732U 19074V   24286.21491045 -.00000485  00000+0 -13685-4 0  9994
2 44732  53.0566 351.7122 0001922  89.3222 270.7987 15.06397682271241
STARLINK-1028           
1 44733U 19074W   24285.54959754  .00017623  00000+0  11983-2 0  9993
2 44733  53.0542 334.6808 0001452  79.6307 280.4845 15.06423018271425
STARLINK-1029           
1 44734U 19074X   24286.16147843  .00004870  00000+0  34586-3 0  9996
2 44734  53.0541 251.9367 0001650  91.7694 268.3484 15.06373458272618
STARLINK-1030           
1 44735U 19074Y   24285.49245397  .00034833  00000+0  23426-2 0  9997
2 44735  53.0554 354.9414 0001406 100.5180 259.5968 15.06451378271131
STARLINK-1031           
1 44736U 19074Z   24286.17068378 -.00000534  00000+0 -16932-4 0  9995
2 44736  53.0547 351.8960 0001875  94.3008 265.8195 15.06392805271248
STARLINK-1032           
1 44737U 19074AA  24286.18173912  .00002442  00000+0  18285-3 0  9998
2 44737  53.0544 351.8423 0002314 100.1550 259.9700 15.06383883271249
STARLINK-1035           
1 44740U 19074AD  24286.17807100  .00077092  00000+0  51402-2 0  9994
2 44740  53.0541 351.8667 0001015 117.3921 242.7172 15.06385182271246
STARLINK-1036           
1 44741U 19074AE  24286.18911294 -.00005522  00000+0 -35220-3 0  9998
2 44741  53.0553 351.8129 0001927  84.5984 275.5225 15.06387126271242
STARLINK-1038           
1 44743U 19074AG  24285.97349120 -.00014102  00000+0 -93060-3 0  9999
2 44743  53.0549  12.7765 0001124 117.2190 242.8914 15.06364647270930
STARLINK-1039           
1 44744U 19074AH  24285.98455807  .00017595  00000+0  11991-2 0  9990
2 44744  53.0545  12.7308 0001407  94.9008 265.2141 15.06339154270939
STARLINK-1042           
1 44747U 19074AL  24286.22229978  .00127305  00000+0  50899-2 0  9990
2 44747  53.0518 354.4996 0005147   1.2823 358.8186 15.24142105271221
STARLINK-1043           
1 44748U 19074AM  24286.22783062  .00020697  00000+0  14052-2 0  9997
2 44748  53.0549  11.6378 0000969  84.9464 275.1635 15.06376485270979
STARLINK-1046           
1 44751U 19074AQ  24285.97715285 -.00003511  00000+0 -21680-3 0  9998
2 44751  53.0546  12.7605 0001612  82.1607 277.9565 15.06420030270934
STARLINK-1047           
1 44752U 19074AR  24285.91667824  .00001859  00000+0  13935-3 0  9993
2 44752  53.0549 353.0150 0000938  79.5984 212.4234 15.07577438271206
STARLINK-1048           
1 44753U 19074AS  24285.87028251 -.00011167  00000+0 -73258-3 0  9993
2 44753  53.0544 333.2413 0001438  97.2240 262.8913 15.06368124271473
STARLINK-1052           
1 44757U 19074AW  24286.00001157  .00125242  00000+0  27419-2 0  9994
2 44757  53.0343 313.4605 0006963 314.5293 237.7679 15.43194359271779
STARLINK-1053           
1 44758U 19074AX  24285.95873838  .00006013  00000+0  42215-3 0  9997
2 44758  53.0545  12.9305 0001523  66.7325 293.3824 15.06405490270938
STARLINK-1054           
1 44759U 19074AY  24286.20572135  .00042710  00000+0  28735-2 0  9997
2 44759  53.0549  11.7368 0000694 270.4583  89.6327 15.06339831270970
STARLINK-1055           
1 44760U 19074AZ  24286.25001157  .00153580  00000+0  19778-2 0  9990
2 44760  53.0076 290.0642 0007885 347.6355  53.1014 15.58010625272129
STARLINK-1056           
1 44761U 19074BA  24285.93663732 -.00026555  00000+0 -17735-2 0  9992
2 44761  53.0568  12.9453 0001444  77.9346 282.1805 15.06336897270939
STARLINK-1057           
1 44762U 19074BB  24286.20378975  .00031494  00000+0  21169-2 0  9998
2 44762  53.0553 351.7429 0002413  64.5702 295.5536 15.06520117271240
STARLINK-1058           
1 44763U 19074BC  24286.21310011  .00007049  00000+0  42097-3 0  9990
2 44763  53.0555  11.5914 0001465 115.3300 244.7843 15.12136351270974
STARLINK-1059           
1 44764U 19074BD  24286.25001157  .00290918  00000+0  22959-2 0  9996
2 44764  53.0715 242.1591 0005645  45.7341  78.6426 15.69979404272824
STARLINK-1060           
1 44765U 19074BE  24286.21859525  .00000474  00000+0  50712-4 0  9999
2 44765  53.0570 351.6811 0001722  96.2435 263.8750 15.06397336271244
STARLINK-1061           
1 44766U 19074BF  24285.91667824  .00229473  00000+0  12110-1 0  9994
2 44766  53.0532  12.6027 0001138  65.3573 328.5977 15.14014585  5636
STARLINK-1062           
1 44767U 19074BG  24285.53492490  .00017898  00000+0  12166-2 0  9996
2 44767  53.0548  15.3256 0001705  84.2393 275.8790 15.06424186270698
STARLINK-1063           
1 44768U 19074BH  24285.96612562 -.00020462  00000+0 -13608-2 0  9993
2 44768  53.0542  12.8124 0001264 111.4902 248.6221 15.06344118270938
STARLINK-1067           
1 44771U 19074BL  24286.22045813  .00005591  00000+0  39415-3 0  9995
2 44771  53.0547  11.6714 0000862  92.3051 267.8036 15.06378517270975
STARLINK-1068           
1 44772U 19074BM  24286.21122461 -.00000737  00000+0 -30558-4 0  9999
2 44772  53.0550 351.7120 0001635 104.2906 255.8265 15.06392857271245
STARLINK-1073           
1 44914U 20001A   24285.89606407  .00009032  00000+0  62380-3 0  9991
2 44914  53.0508 133.1257 0001495  88.3678 271.7482 15.06437762262402
STARLINK-1084           
1 44915U 20001B   24285.85922971  .00001880  00000+0  14505-3 0  9994
2 44915  53.0544 133.2929 0001772  96.3859 263.7332 15.06403811262401
STARLINK-1098           
1 44917U 20001D   24285.86292069  .00005371  00000+0  37911-3 0  9990
2 44917  53.0529 133.2709 0001679  96.8764 263.2416 15.06407142262407
STARLINK-1102           
1 44920U 20001G   24286.07050696  .00066505  00000+0  14375-2 0  9990
2 44920  53.0491  44.4622 0003897 349.1288  10.9633 15.43902215263686
STARLINK-1103           
1 44921U 20001H   24285.83983153  .00013746  00000+0  93884-3 0  9999
2 44921  53.0519 133.3335 0001614  89.4271 270.6903 15.06442704262379
STARLINK-1104           
1 44922U 20001J   24285.87765490  .00027285  00000+0  18430-2 0  9992
2 44922  53.0522 133.2074 0001562  90.3227 269.7941 15.06411742262400
STARLINK-1106           
1 44923U 20001K   24285.88498279  .00062588  00000+0  14117-2 0  9995
2 44923  53.0131  64.7723 0005993 211.9200 148.1441 15.42652098263362
STARLINK-1112           
1 44925U 20001M   24285.84080614  .00005251  00000+0  37119-3 0  9995
2 44925  53.0526 133.3730 0001636  94.1492 265.9684 15.06394032262397
STARLINK-1114           
1 44927U 20001P   24285.85185302  .00001979  00000+0  15170-3 0  9994
2 44927  53.0540 133.3229 0001796 105.0297 255.0891 15.06410509262400
STARLINK-1123           
1 44930U 20001S   24285.86660171  .00000913  00000+0  80207-4 0  9992
2 44930  53.0539 133.2622 0001709  97.5700 262.5483 15.06406643262400
STARLINK-1130 (DARKSAT) 
1 44932U 20001U   24285.98820814 -.00000381  00000+0 -66892-5 0  9995
2 44932  53.0539 132.7113 0001384  97.7743 262.3403 15.06430383263655
STARLINK-1144           
1 44933U 20001V   24285.86458469  .00031032  00000+0  19575-2 0  9994
2 44933  53.0526 133.0943 0001649 206.0793 154.0114 15.08869845263692
STARLINK-1071           
1 44934U 20001W   24285.89424119  .00013099  00000+0  89618-3 0  9992
2 44934  53.0533 113.1332 0001401  90.7515 269.3634 15.06417938262683
STARLINK-1079           
1 44937U 20001Z   24286.25001157  .00029994  00000+0  11848-2 0  9999
2 44937  53.0502  94.5869 0005215 133.4498 224.7286 15.25277648262974
STARLINK-1091           
1 44940U 20001AC  24285.79104271  .00011392  00000+0  78220-3 0  9993
2 44940  53.0532 113.5996 0001541  95.9272 264.1892 15.06411931262665
STARLINK-1094           
1 44941U 20001AD  24286.21121658  .00004245  00000+0  30340-3 0  9990
2 44941  53.0536 111.7113 0001432  87.5993 272.5160 15.06435937262738
STARLINK-1096           
1 44942U 20001AE  24285.99792799  .00055126  00000+0  13293-2 0  9996
2 44942  53.0111  18.4886 0003253 271.5158  88.5473 15.40710507264022
STARLINK-1108           
1 44944U 20001AG  24286.41291440  .00526389  13403-3  94623-3 0  9999
2 44944  53.0424  89.0516 0006973 299.0950 148.2281 16.01057599263058
STARLINK-1109           
